#dP2024  5  9  0  0  0.00000000      96 __u+U IGS20 EXT  IAC
## 2313 345600.00000000   900.00000000 60439 0.0000000000000
+  119   C06C07C08C09C10C11C12C13C14C16C19C20C21C22C23C24C25
+        C26C27C28C29C30C32C33C34C35C36C37C38C39C40C41C42C43
+        C44C45C46E02E03E04E05E07E08E09E10E11E12E13E14E15E18
+        E19E21E24E25E26E27E30E31E33E34E36G02G03G04G05G06G07
+        G08G09G10G11G12G13G14G15G16G17G18G19G20G21G22G23G24
+        G25G26G27G28G29G30G31G32J02J03J04R01R02R03R04R05R07
+        R08R09R11R12R13R14R15R16R17R18R19R20R21R22R24R25R26
++        12 10 10 12 10  9  8  9  9 10  7  8  9  8  8  8  7
++        10  8  6  7  8  7  7  7  8  8  8 11 10  8  8  8  9
++         8  8  6  7  7  6  7  7  6  7  8  6  7  8  8  6  8
++         9  8  9  8  8  8  8  9  8  7  8  8 10  7  8  8  7
++         6  7 11  7  6  6 10  8  6  7  7  7  9  8  8  7  7
++         8  7  8  8  8  7  9  7 10  8  0 10  8  7  6  7  8
++         8  9  8  9  9  9  8  8  8  6  9  8  7  6  9  8  8
%c M  cc GPS ccc cccc cccc cccc cccc ccccc ccccc ccccc ccccc
%c cc cc ccc ccc cccc cccc cccc cccc ccccc ccccc ccccc ccccc
%f  0.0000000  0.000000000  0.00000000000  0.000000000000000
%f  0.0000000  0.000000000  0.00000000000  0.000000000000000
%i    0    0    0    0      0      0      0      0         0
%i    0    0    0    0      0      0      0      0         0
/* IAC                                ULTRA-RAPID PREDICTION
/* S/V CLOCKS ARE ALIGNED TO GNSS TIME                      
/* G:C1WC2W R:C1PC2P E:C1XC5X C:C2IC6I J:C1CC2S             
/* PCV:IGS20_2290 OL/AL:FES2004  NONE     YN ORB:CoN CLK:CoN
*  2024 05 09  6 45  0.00000000
PC06  -5190.493044  24254.677469 -33979.722159    407.573159
PC07 -17008.390377  36027.152947  13542.991581   -746.557185
PC08  -2647.801805  37981.137972  18325.986246    -97.640524
PC09   2093.311853  26149.972472 -32398.140507   -875.288235
PC10  -8833.035924  35835.795104  20207.481034     28.039586
PC11  27692.745361   2543.113173   2447.019571    553.144050
PC12  16672.510228  12681.890328  18469.157688   -243.239250
PC13   2005.390533  40553.881455  12017.476485    434.806287
PC14  17871.873006  -2175.019753 -21326.346831    838.298121
PC16 -10039.782808  21818.718617 -34362.472742   -509.600814
PC19 -19371.474623  11874.085221  16203.803225   -912.958251
PC20 -14332.235320  -6303.899756  23110.079177   -444.771161
PC21     60.529411  22395.777554 -16609.485019   -966.189643
PC22 -13593.156850  24343.902662   -497.947016    -11.122390
PC23   6338.718231 -18139.390626  20242.779602   -778.227224
PC24  18912.842726  17850.417496  10136.948750    926.608030
PC25  17721.610314   -806.111745  21535.882511    395.176817
PC26   9700.631477  25256.963099  -6920.210121   -288.689404
PC27  -7385.043244 -15488.832990 -22031.878941    310.294616
PC28  11674.176988 -14534.987351 -20764.550512    237.747054
PC29 -26865.089696   4976.621549   5675.581928    278.961470
PC30 -23793.364019  -7843.401346 -12327.251833    -73.035182
PC32   -168.698112 -22485.258064  16559.464283   -619.051483
PC33  19313.224836 -11972.788528 -16212.814169   -966.151686
PC34  24714.496075   6890.906262  10934.207190    429.721707
PC35 -11478.394295  14956.066678  20568.264400    367.590989
PC36 -17757.990477    317.280203 -21500.380767     76.042833
PC37  -8960.213834 -25441.511402   7122.317240   -969.720798
PC38  -7352.183359  34275.611892  23569.348536    153.980669
PC39 -14382.017895  20364.752659 -33960.604842     -8.284137
PC40 -24491.317969  31593.817099  12938.051086    -69.286128
PC41  13950.654036 -24182.045933   -292.486226   -943.402301
PC42  13447.486025   7960.396213 -23075.474787   -442.762428
PC43  27127.954093  -4396.614206  -4799.844783     70.984730
PC44   7762.665939  15350.018069  21949.255189    467.833079
PC45  -6370.014490  17999.670131 -20358.442777    -84.723247
PC46 -18980.982178 -17319.005769 -10846.007020   -146.684919
PE02 -12456.810737 -18048.604521 -19882.239984    125.936354
PE03 -18130.645049  -8129.658986  21937.489835   -112.538642
PE04  27535.079483  -7580.812244  -7782.723205   -392.664241
PE05   1690.362638 -18704.878144  22890.227905   4746.016139
PE07 -20934.110421  18291.021155 -10133.060732   -119.089978
PE08 -27439.885627   6982.219031   8606.690555   -267.798216
PE09  21040.651420 -18226.209841  10100.323972   -436.271602
PE10  19320.083116  -4139.484846 -22049.893689   -623.380167
PE11  10398.502738 -12345.000901 -24825.707106   2900.112753
PE12  24445.553806   3746.995209 -16255.990834  -1030.185730
PE13 -10950.267369  11842.062337  24819.118821    -21.474523
PE14 -23009.552999    632.081584 -10821.525397     30.629121
PE15 -24646.833621  -4252.499146  15842.290309   -101.806007
PE18  28927.274538 -12747.499635    234.405390     90.174643
PE19  16300.673460   9540.827798 -22777.947814    -96.769980
PE21   1253.724467  29197.799429   4688.653365   -593.526452
PE24  11406.870088 -23426.347517  14012.821069   -752.251364
PE25   -978.191464 -29269.761859  -4297.315881      4.287423
PE26   9408.234554  20939.745486  18682.818844    449.097755
PE27 -11169.539591  23679.153917 -13816.758747   -344.752508
PE30 -16934.190886   4064.276286 -23948.932731   -281.418234
PE31  16860.152213  -4265.379144  23955.955324    -23.000034
PE33  23451.291582  17844.022382   2789.087550     11.454387
PE34 -23710.022686 -17571.224609  -2293.621651   -110.211328
PE36  -8914.788705 -20750.386836 -19143.932981   -224.558722
PG02 -22252.958255 -14186.171756  -3661.598281   -439.428231
PG03 -12239.373312 -13624.913324  19130.426830    353.904411
PG04 -18298.845847  -5348.071832  18567.570317    357.019174
PG05   6129.108694  24453.141352  -8389.969119   -172.048216
PG06  -8874.042801  11646.942574  22223.282081    282.418254
PG07 -22816.383491  -3142.017947 -13112.755118   -124.932919
PG08  -9722.084817 -12142.673030 -21659.374222    168.298576
PG09 -24091.301436   6132.808370   9345.613287    189.638007
PG10  10612.344664 -18799.943596 -15044.502526    -20.138606
PG11   4337.622869  18549.375125  18552.425228   -657.602578
PG12  10967.864486  15892.050400  17976.861486   -503.749428
PG13   -224.468093  15772.146045 -21538.957173    649.087627
PG14 -13265.835769  15128.951890 -17201.174274    396.266799
PG15  11177.272136  11579.805855 -21635.944296    157.065044
PG16   -867.777753 -25773.688247  -5602.590512   -296.374285
PG17 -22655.009957  13533.219024   4108.133729    707.711111
PG18  22082.858719   2405.580154 -14692.322350   -607.766988
PG19 -17109.814728  15927.935767  12052.399589    479.501875
PG20   1428.631432  26397.566039   3372.333219    377.247558
PG21 -19564.149932 -16435.225609  -8492.139733    122.689407
PG22 -10158.111902  22084.073761 -10620.558010    -11.057721
PG23  14324.805761  -6668.359766 -21291.937371    220.903581
PG24  20756.792539  15735.665698  -6628.101800   -467.873717
PG25  14888.070132   5580.856522  20970.270314    495.387707
PG26   4920.622207 -24528.674658   8201.437359    155.519938
PG27   2703.893645 -17390.969730 -20051.314818    -23.078166
PG28  11215.773919 -10847.821260  21480.833686   -236.299177
PG29  23901.460549  -1994.254167  11478.701380   -599.100726
PG30 -16342.713552   6928.337639 -19686.839123   -393.192483
PG31    895.706636 -16650.063546  20372.406266   -227.878582
PG32  20333.677572 -15915.591511   5962.335417   -618.363746
PJ02 -22601.011428  31647.243825 -11440.609209     -0.115798
PJ03 -28028.992830  22362.211550  27338.705737      0.151029
PJ04      0.000000      0.000000      0.000000     50.334824
PR01 -16029.774101   5622.072655  19027.305521     84.817229
PR02 -17975.520829  17543.066504   4678.288070    -22.909631
PR03  -9379.637361  20187.155948 -12454.666818     99.795746
PR04   3775.100535  11516.649955 -22412.113406    235.587238
PR05  15107.008500  -3116.633045 -20293.515127    131.225693
PR07   8681.731407 -19948.959252  13324.506146     81.984346
PR08  -4227.203590 -11348.172704  22510.650799    -75.383545
PR09   7436.886509 -10717.026101  21954.774767    185.533888
PR11 -10718.877471 -22754.581987  -4293.320162     25.327609
PR12 -13327.662212  -8439.710826 -20016.362699     39.921780
PR13  -8628.486198   7931.354413 -22668.717514    -47.206081
PR14   2644.163309  22660.150616 -11375.233310     26.448374
PR15  11162.111217  22162.880371   5907.672035     79.991331
PR16  13281.075824   8627.514949  19993.698933     25.423145
PR17   -801.787364  10640.664047  23171.336048     85.154887
PR18  15951.181085  10842.280465  16672.537316    141.143874
PR19  24285.816105   7080.749014   3273.562517   -275.978233
PR20  19052.642903  -3201.913828 -16628.584311   -112.524082
PR21   1070.345072 -10518.498806 -23218.498394    -99.350172
PR22 -16633.289903 -11343.049087 -15650.170284    113.066134
PR24 -18569.825973   4631.676785  16866.745422    -55.079804
PR25   1072.900469 -10943.409723 -23014.166205    -34.581059
PR26  -3273.341891 -12272.893697  22149.525453    -20.657246
EOF
